IRIDIUM 119             
1 42959U 17061E   25066.79392091  .00000463  00000+0  15832-3 0  9997
2 42959  86.3982 220.0957 0002320  91.9463 268.1998 14.34216463387961
IRIDIUM 107             
1 42960U 17061F   25066.81294877  .00000251  00000+0  82449-4 0  9999
2 42960  86.3981 220.1062 0002419  83.1405 277.0066 14.34218139387976
IRIDIUM 132             
1 42961U 17061G   25066.81928746  .00000199  00000+0  63872-4 0  9999
2 42961  86.3983 220.0866 0002078  90.5309 269.6125 14.34217054387974
IRIDIUM 136             
1 42962U 17061H   25066.92077271  .00000474  00000+0  16225-3 0  9995
2 42962  86.3981 220.0484 0002427  88.2389 271.9085 14.34219260388006
IRIDIUM 139             
1 42963U 17061J   25066.92711026  .00000449  00000+0  15320-3 0  9996
2 42963  86.3984 220.1001 0002165  85.8566 274.2877 14.34215493388015
IRIDIUM 125             
1 42964U 17061K   25066.91443020  .00000362  00000+0  12219-3 0  9990
2 42964  86.3984 220.1579 0002772  92.8625 267.2888 14.34218210388029
IRIDIUM 135             
1 43070U 17083A   25066.74901871  .00000449  00000+0  15313-3 0  9991
2 43070  86.4034 157.0008 0002049 101.2018 258.9408 14.34219524377299
IRIDIUM 138             
1 43071U 17083B   25066.70462091  .00000273  00000+0  90511-4 0  9993
2 43071  86.4020 156.7037 0002728 105.0482 255.1016 14.34219430377272
